{
  "type": "FeatureCollection",
  "features": [
    {
      "type": "Feature",
      "properties": {
        "norad_id": 43602,
        "name": "BEIDOU-3 M12 (C26)",
        "group": "beidou",
        "lat": -21.715885482189954,
        "lon": 170.74824428274525,
        "alt_km": 21521.697853119986,
        "timestamp": "2025-12-09T20:37:09.552282+00:00",
        "meta_object_name": "BEIDOU-3 M12 (C26)",
        "meta_object_id": "2018-067A",
        "meta_epoch": "2025-12-07T18:02:34.116000",
        "meta_mean_motion": 1.86227677,
        "meta_eccentricity": 0.00091651,
        "meta_inclination": 54.1832,
        "meta_ra_of_asc_node": 187.5325,
        "meta_arg_of_pericenter": 40.8071,
        "meta_mean_anomaly": 319.3279,
        "meta_ephemeris_type": 0,
        "meta_classification_type": "U",
        "meta_norad_cat_id": 43602,
        "meta_element_set_no": 999,
        "meta_rev_at_epoch": 4955,
        "meta_bstar": 0,
        "meta_mean_motion_dot": 5.6e-07,
        "meta_mean_motion_ddot": 0,
        "tle_line1": "1 43602U 18067A   25341.75178375  .00000056  00000+0  00000+0 0  9994",
        "tle_line2": "2 43602  54.1832 187.5325 0009165  40.8071 319.3279  1.86227677 49555"
      },
      "geometry": {
        "type": "Point",
        "coordinates": [
          170.74824428274525,
          -21.715885482189954
        ]
      }
    },
    {
      "type": "Feature",
      "properties": {
        "norad_id": 43603,
        "name": "BEIDOU-3 M11 (C25)",
        "group": "beidou",
        "lat": -46.10269418924036,
        "lon": 56.08612807865673,
        "alt_km": 21547.687511973876,
        "timestamp": "2025-12-09T20:37:09.552293+00:00",
        "meta_object_name": "BEIDOU-3 M11 (C25)",
        "meta_object_id": "2018-067B",
        "meta_epoch": "2025-12-07T08:23:01.607424",
        "meta_mean_motion": 1.86227152,
        "meta_eccentricity": 0.0005581,
        "meta_inclination": 54.1802,
        "meta_ra_of_asc_node": 187.5102,
        "meta_arg_of_pericenter": 36.6822,
        "meta_mean_anomaly": 323.425,
        "meta_ephemeris_type": 0,
        "meta_classification_type": "U",
        "meta_norad_cat_id": 43603,
        "meta_element_set_no": 999,
        "meta_rev_at_epoch": 4957,
        "meta_bstar": 0,
        "meta_mean_motion_dot": 6e-07,
        "meta_mean_motion_ddot": 0,
        "tle_line1": "1 43603U 18067B   25341.34932416  .00000060  00000+0  00000+0 0  9999",
        "tle_line2": "2 43603  54.1802 187.5102 0005581  36.6822 323.4250  1.86227152 49576"
      },
      "geometry": {
        "type": "Point",
        "coordinates": [
          56.08612807865673,
          -46.10269418924036
        ]
      }
    },
    {
      "type": "Feature",
      "properties": {
        "norad_id": 43622,
        "name": "BEIDOU-3 M13 (C32)",
        "group": "beidou",
        "lat": -56.434883072392914,
        "lon": -17.87264551200192,
        "alt_km": 21520.178985262493,
        "timestamp": "2025-12-09T20:37:09.552305+00:00",
        "meta_object_name": "BEIDOU-3 M13 (C32)",
        "meta_object_id": "2018-072A",
        "meta_epoch": "2025-12-09T10:53:18.929184",
        "meta_mean_motion": 1.86230678,
        "meta_eccentricity": 0.00056167,
        "meta_inclination": 56.4562,
        "meta_ra_of_asc_node": 68.9299,
        "meta_arg_of_pericenter": 299.0719,
        "meta_mean_anomaly": 60.8948,
        "meta_ephemeris_type": 0,
        "meta_classification_type": "U",
        "meta_norad_cat_id": 43622,
        "meta_element_set_no": 999,
        "meta_rev_at_epoch": 4912,
        "meta_bstar": 0,
        "meta_mean_motion_dot": -4.9e-07,
        "meta_mean_motion_ddot": 0,
        "tle_line1": "1 43622U 18072A   25343.45369131 -.00000049  00000+0  00000+0 0  9996",
        "tle_line2": "2 43622  56.4562  68.9299 0005616 299.0719  60.8948  1.86230678 49127"
      },
      "geometry": {
        "type": "Point",
        "coordinates": [
          -17.87264551200192,
          -56.434883072392914
        ]
      }
    },
    {
      "type": "Feature",
      "properties": {
        "norad_id": 43623,
        "name": "BEIDOU-3 M14 (C33)",
        "group": "beidou",
        "lat": 1.6907191024825732,
        "lon": 70.03957262728323,
        "alt_km": 21520.15590851877,
        "timestamp": "2025-12-09T20:37:09.552316+00:00",
        "meta_object_name": "BEIDOU-3 M14 (C33)",
        "meta_object_id": "2018-072B",
        "meta_epoch": "2025-12-09T07:39:35.322912",
        "meta_mean_motion": 1.86230627,
        "meta_eccentricity": 0.0003205,
        "meta_inclination": 56.458,
        "meta_ra_of_asc_node": 68.9278,
        "meta_arg_of_pericenter": 335.7988,
        "meta_mean_anomaly": 24.209,
        "meta_ephemeris_type": 0,
        "meta_classification_type": "U",
        "meta_norad_cat_id": 43623,
        "meta_element_set_no": 999,
        "meta_rev_at_epoch": 4911,
        "meta_bstar": 0,
        "meta_mean_motion_dot": -4.8e-07,
        "meta_mean_motion_ddot": 0,
        "tle_line1": "1 43623U 18072B   25343.31915883 -.00000048  00000+0  00000+0 0  9992",
        "tle_line2": "2 43623  56.4580  68.9278 0003205 335.7988  24.2090  1.86230627 49118"
      },
      "geometry": {
        "type": "Point",
        "coordinates": [
          70.03957262728323,
          1.6907191024825732
        ]
      }
    },
    {
      "type": "Feature",
      "properties": {
        "norad_id": 43647,
        "name": "BEIDOU-3 M16 (C35)",
        "group": "beidou",
        "lat": -52.02317120728353,
        "lon": -166.23438039844615,
        "alt_km": 21544.329001086764,
        "timestamp": "2025-12-09T20:37:09.552327+00:00",
        "meta_object_name": "BEIDOU-3 M16 (C35)",
        "meta_object_id": "2018-078A",
        "meta_epoch": "2025-12-08T22:33:41.935680",
        "meta_mean_motion": 1.86232209,
        "meta_eccentricity": 0.0007116,
        "meta_inclination": 54.2656,
        "meta_ra_of_asc_node": 306.6541,
        "meta_arg_of_pericenter": 19.0293,
        "meta_mean_anomaly": 340.9862,
        "meta_ephemeris_type": 0,
        "meta_classification_type": "U",
        "meta_norad_cat_id": 43647,
        "meta_element_set_no": 999,
        "meta_rev_at_epoch": 4861,
        "meta_bstar": 0,
        "meta_mean_motion_dot": -7.5e-07,
        "meta_mean_motion_ddot": 0,
        "tle_line1": "1 43647U 18078A   25342.94006870 -.00000075  00000+0  00000+0 0  9999",
        "tle_line2": "2 43647  54.2656 306.6541 0007116  19.0293 340.9862  1.86232209 48612"
      },
      "geometry": {
        "type": "Point",
        "coordinates": [
          -166.23438039844615,
          -52.02317120728353
        ]
      }
    },
    {
      "type": "Feature",
      "properties": {
        "norad_id": 43648,
        "name": "BEIDOU-3 M15 (C34)",
        "group": "beidou",
        "lat": 8.39513528413308,
        "lon": 120.50801035811418,
        "alt_km": 21535.953118801965,
        "timestamp": "2025-12-09T20:37:09.552339+00:00",
        "meta_object_name": "BEIDOU-3 M15 (C34)",
        "meta_object_id": "2018-078B",
        "meta_epoch": "2025-12-09T01:39:46.541952",
        "meta_mean_motion": 1.8623188,
        "meta_eccentricity": 0.00035968,
        "meta_inclination": 54.2613,
        "meta_ra_of_asc_node": 306.6503,
        "meta_arg_of_pericenter": 17.7285,
        "meta_mean_anomaly": 342.2733,
        "meta_ephemeris_type": 0,
        "meta_classification_type": "U",
        "meta_norad_cat_id": 43648,
        "meta_element_set_no": 999,
        "meta_rev_at_epoch": 4863,
        "meta_bstar": 0,
        "meta_mean_motion_dot": -7.5e-07,
        "meta_mean_motion_ddot": 0,
        "tle_line1": "1 43648U 18078B   25343.06928868 -.00000075  00000+0  00000+0 0  9994",
        "tle_line2": "2 43648  54.2613 306.6503 0003596  17.7285 342.2733  1.86231880 48636"
      },
      "geometry": {
        "type": "Point",
        "coordinates": [
          120.50801035811418,
          8.39513528413308
        ]
      }
    },
    {
      "type": "Feature",
      "properties": {
        "norad_id": 43683,
        "name": "BEIDOU-3 G1 (C59)",
        "group": "beidou",
        "lat": 2.3592519026191163,
        "lon": 168.1853770148416,
        "alt_km": 35778.35461535922,
        "timestamp": "2025-12-09T20:37:09.552350+00:00",
        "meta_object_name": "BEIDOU-3 G1 (C59)",
        "meta_object_id": "2018-085A",
        "meta_epoch": "2025-12-08T17:41:39.231168",
        "meta_mean_motion": 1.00272068,
        "meta_eccentricity": 0.0001779,
        "meta_inclination": 2.5974,
        "meta_ra_of_asc_node": 103.0581,
        "meta_arg_of_pericenter": 62.9114,
        "meta_mean_anomaly": 317.2543,
        "meta_ephemeris_type": 0,
        "meta_classification_type": "U",
        "meta_norad_cat_id": 43683,
        "meta_element_set_no": 999,
        "meta_rev_at_epoch": 2615,
        "meta_bstar": 0,
        "meta_mean_motion_dot": -2.75e-06,
        "meta_mean_motion_ddot": 0,
        "tle_line1": "1 43683U 18085A   25342.73725962 -.00000275  00000+0  00000+0 0  9996",
        "tle_line2": "2 43683   2.5974 103.0581 0001779  62.9114 317.2543  1.00272068 26153"
      },
      "geometry": {
        "type": "Point",
        "coordinates": [
          168.1853770148416,
          2.3592519026191163
        ]
      }
    }
  ]
}